STARLINK-32627          
1 62315U 24239Q   26068.64797227  .00018075  00000+0  62111-3 0  9997
2 62315  53.1585 194.3422 0001034  84.6982 275.4137 15.30188683 69373
JINJUSAT-1B             
1 63210U 25052A   26068.66363707  .00019955  00000+0  68430-3 0  9998
2 63210  97.4113 325.4613 0005550  82.1930 277.9941 15.30194857 54866
